[{"OBJECT_NAME":"YAOGAN-35 04A","OBJECT_ID":"2022-100A","EPOCH":"2026-03-06T19:06:06.057216","MEAN_MOTION":15.2292121,"ECCENTRICITY":0.00089031,"INCLINATION":35.0121,"RA_OF_ASC_NODE":335.6537,"ARG_OF_PERICENTER":77.9263,"MEAN_ANOMALY":282.2449,"EPHEMERIS_TYPE":0,"CLASSIFICATION_TYPE":"U","NORAD_CAT_ID":53522,"ELEMENT_SET_NO":999,"REV_AT_EPOCH":19764,"BSTAR":1.9251867e-5,"MEAN_MOTION_DOT":4.25e-6,"MEAN_MOTION_DDOT":0},{"OBJECT_NAME":"LOBACHEVSKY (RS83S)","OBJECT_ID":"2025-313AN","EPOCH":"2026-03-09T21:53:46.312512","MEAN_MOTION":15.21792932,"ECCENTRICITY":0.0010507,"INCLINATION":97.399,"RA_OF_ASC_NODE":145.2052,"ARG_OF_PERICENTER":356.6168,"MEAN_ANOMALY":3.4996,"EPHEMERIS_TYPE":0,"CLASSIFICATION_TYPE":"U","NORAD_CAT_ID":67284,"ELEMENT_SET_NO":999,"REV_AT_EPOCH":1085,"BSTAR":0.00030825721,"MEAN_MOTION_DOT":6.937e-5,"MEAN_MOTION_DDOT":0}]
